{
    "links": {
        "self": "http://www.neowsapp.com/rest/v1/neo/3597092?api_key=iIulBulltgU6a56xZRHN4H3l9WmuAYTsLGpBGhQ2"
    },
    "id": "3597092",
    "neo_reference_id": "3597092",
    "name": "(2012 BO123)",
    "designation": "2012 BO123",
    "nasa_jpl_url": "http://ssd.jpl.nasa.gov/sbdb.cgi?sstr=3597092",
    "absolute_magnitude_h": 24.8,
    "estimated_diameter": {
        "kilometers": {
            "estimated_diameter_min": 0.0291443905,
            "estimated_diameter_max": 0.0651688382
        },
        "meters": {
            "estimated_diameter_min": 29.1443904535,
            "estimated_diameter_max": 65.1688382168
        },
        "miles": {
            "estimated_diameter_min": 0.018109479,
            "estimated_diameter_max": 0.0404940262
        },
        "feet": {
            "estimated_diameter_min": 95.6180819754,
            "estimated_diameter_max": 213.8085311752
        }
    },
    "is_potentially_hazardous_asteroid": false,
    "close_approach_data": [
        {
            "close_approach_date": "2012-01-28",
            "close_approach_date_full": "2012-Jan-28 21:19",
            "epoch_date_close_approach": 1327785540000,
            "relative_velocity": {
                "kilometers_per_second": "12.4624816164",
                "kilometers_per_hour": "44864.9338190713",
                "miles_per_hour": "27877.3251277446"
            },
            "miss_distance": {
                "astronomical": "0.0962477396",
                "lunar": "37.4403707044",
                "kilometers": "14398456.836474652",
                "miles": "8946786.2101961176"
            },
            "orbiting_body": "Earth"
        },
        {
            "close_approach_date": "2012-07-03",
            "close_approach_date_full": "2012-Jul-03 20:06",
            "epoch_date_close_approach": 1341345960000,
            "relative_velocity": {
                "kilometers_per_second": "14.3669528568",
                "kilometers_per_hour": "51721.0302843176",
                "miles_per_hour": "32137.436845275"
            },
            "miss_distance": {
                "astronomical": "0.4519744751",
                "lunar": "175.8180708139",
                "kilometers": "67614418.769328037",
                "miles": "42013651.6243474306"
            },
            "orbiting_body": "Earth"
        }
    ],
    "orbital_data": {
        "orbit_id": "4",
        "orbit_determination_date": "2017-04-06 08:51:05",
        "first_observation_date": "2012-01-31",
        "last_observation_date": "2012-02-01",
        "data_arc_in_days": 1,
        "observations_used": 24,
        "orbit_uncertainty": "9",
        "minimum_orbit_intersection": ".0958851",
        "jupiter_tisserand_invariant": "5.364",
        "epoch_osculation": "2455958.5",
        "eccentricity": ".0714819359749361",
        "semi_major_axis": "1.155052631638856",
        "inclination": "23.96279994791614",
        "ascending_node_longitude": "307.0883177666056",
        "orbital_period": "453.420433452041",
        "perihelion_distance": "1.072487233376366",
        "perihelion_argument": "208.2022423743517",
        "aphelion_distance": "1.237618029901346",
        "perihelion_time": "2455985.466310081422",
        "mean_anomaly": "338.5896909069522",
        "mean_motion": ".7939651004680135",
        "equinox": "J2000",
        "orbit_class": {
            "orbit_class_type": "AMO",
            "orbit_class_description": "Near-Earth asteroid orbits similar to that of 1221 Amor",
            "orbit_class_range": "1.017 AU < q (perihelion) < 1.3 AU"
        }
    },
    "is_sentry_object": false
}